{"type": "FeatureCollection", "features": [ {"type": "Feature", "properties": {"norad_id": 44804, "name": "CARTOSAT-3", "group": "resource", "lat": -20.512256623781127, "lon": 63.84479984429235, "alt_km": 508.22067402371067, "timestamp": "2025-12-27T15:27:10.801087+00:00", "meta": {"OBJECT_NAME": "CARTOSAT-3", "OBJECT_ID": "2019-081A", "EPOCH": "2025-12-27T06:03:34.175232", "MEAN_MOTION": 15.19275671, "ECCENTRICITY": 0.00133991, "INCLINATION": 97.4558, "RA_OF_ASC_NODE": 60.6501, "ARG_OF_PERICENTER": 37.1948, "MEAN_ANOMALY": 323.0212, "EPHEMERIS_TYPE": 0, "CLASSIFICATION_TYPE": "U", "NORAD_CAT_ID": 44804, "ELEMENT_SET_NO": 999, "REV_AT_EPOCH": 33736, "BSTAR": 0.00021209323, "MEAN_MOTION_DOT": 4.414e-05, "MEAN_MOTION_DDOT": 0}, "tle": {"line1": "1 44804U 19081A   25361.25247888  .00004414  00000+0  21209-3 0  9999", "line2": "2 44804  97.4558  60.6501 0013399  37.1948 323.0212 15.19275671337364"}}, "geometry": {"type": "Point", "coordinates": [63.84479984429235, -20.512256623781127]}}, {"type": "Feature", "properties": {"norad_id": 44819, "name": "GAOFEN-12 01", "group": "resource", "lat": 1.4852128899943715, "lon": -172.26241108108414, "alt_km": 628.37472186379, "timestamp": "2025-12-27T15:27:10.801097+00:00", "meta": {"OBJECT_NAME": "GAOFEN-12 01", "OBJECT_ID": "2019-082A", "EPOCH": "2025-12-27T06:32:26.070144", "MEAN_MOTION": 14.8067432, "ECCENTRICITY": 0.00023747, "INCLINATION": 97.8125, "RA_OF_ASC_NODE": 7.172, "ARG_OF_PERICENTER": 172.0724, "MEAN_ANOMALY": 188.0527, "EPHEMERIS_TYPE": 0, "CLASSIFICATION_TYPE": "U", "NORAD_CAT_ID": 44819, "ELEMENT_SET_NO": 999, "REV_AT_EPOCH": 32865, "BSTAR": 8.449786e-05, "MEAN_MOTION_DOT": 5.99e-06, "MEAN_MOTION_DDOT": 0}, "tle": {"line1": "1 44819U 19082A   25361.27252396  .00000599  00000+0  84498-4 0  9998", "line2": "2 44819  97.8125   7.1720 0002374 172.0724 188.0527 14.80674320328656"}}, "geometry": {"type": "Point", "coordinates": [-172.26241108108414, 1.4852128899943715]}}, {"type": "Feature", "properties": {"norad_id": 44873, "name": "CSG-1", "group": "resource", "lat": 9.007412817477654, "lon": -178.51456824594067, "alt_km": 624.0067919371477, "timestamp": "2025-12-27T15:27:10.801108+00:00", "meta": {"OBJECT_NAME": "CSG-1", "OBJECT_ID": "2019-092A", "EPOCH": "2025-12-27T07:18:39.159360", "MEAN_MOTION": 14.82164521, "ECCENTRICITY": 0.00014449, "INCLINATION": 97.8805, "RA_OF_ASC_NODE": 182.4095, "ARG_OF_PERICENTER": 84.9347, "MEAN_ANOMALY": 275.2031, "EPHEMERIS_TYPE": 0, "CLASSIFICATION_TYPE": "U", "NORAD_CAT_ID": 44873, "ELEMENT_SET_NO": 999, "REV_AT_EPOCH": 32601, "BSTAR": 0.00010116221, "MEAN_MOTION_DOT": 7.53e-06, "MEAN_MOTION_DDOT": 0}, "tle": {"line1": "1 44873U 19092A   25361.30461990  .00000753  00000+0  10116-3 0  9992", "line2": "2 44873  97.8805 182.4095 0001444  84.9347 275.2031 14.82164521326018"}}, "geometry": {"type": "Point", "coordinates": [-178.51456824594067, 9.007412817477654]}}, {"type": "Feature", "properties": {"norad_id": 46277, "name": "NEMO-HD", "group": "resource", "lat": 51.1863028368717, "lon": 51.486776536643255, "alt_km": 438.9048703449571, "timestamp": "2025-12-27T15:27:10.801118+00:00", "meta": {"OBJECT_NAME": "NEMO-HD", "OBJECT_ID": "2020-061F", "EPOCH": "2025-12-27T05:52:34.474080", "MEAN_MOTION": 15.40629984, "ECCENTRICITY": 9.556e-05, "INCLINATION": 97.2188, "RA_OF_ASC_NODE": 60.1587, "ARG_OF_PERICENTER": 56.2948, "MEAN_ANOMALY": 303.839, "EPHEMERIS_TYPE": 0, "CLASSIFICATION_TYPE": "U", "NORAD_CAT_ID": 46277, "ELEMENT_SET_NO": 999, "REV_AT_EPOCH": 29547, "BSTAR": 0.00031330577, "MEAN_MOTION_DOT": 0.00012685, "MEAN_MOTION_DDOT": 0}, "tle": {"line1": "1 46277U 20061F   25361.24484345  .00012685  00000+0  31331-3 0  9991", "line2": "2 46277  97.2188  60.1587 0000955  56.2948 303.8390 15.40629984295474"}}, "geometry": {"type": "Point", "coordinates": [51.486776536643255, 51.1863028368717]}}, {"type": "Feature", "properties": {"norad_id": 46984, "name": "SENTINEL-6A", "group": "resource", "lat": 52.74992106470245, "lon": 167.13518612267075, "alt_km": 1337.140480587147, "timestamp": "2025-12-27T15:27:10.801128+00:00", "meta": {"OBJECT_NAME": "SENTINEL-6A", "OBJECT_ID": "2020-086A", "EPOCH": "2025-12-27T02:01:15.305952", "MEAN_MOTION": 12.80930827, "ECCENTRICITY": 0.00077651, "INCLINATION": 66.0404, "RA_OF_ASC_NODE": 132.5143, "ARG_OF_PERICENTER": 269.4807, "MEAN_ANOMALY": 90.5318, "EPHEMERIS_TYPE": 0, "CLASSIFICATION_TYPE": "U", "NORAD_CAT_ID": 46984, "ELEMENT_SET_NO": 999, "REV_AT_EPOCH": 23828, "BSTAR": 8.8344369e-05, "MEAN_MOTION_DOT": -4.1e-07, "MEAN_MOTION_DDOT": 0}, "tle": {"line1": "1 46984U 20086A   25361.08420493 -.00000041  00000+0  88344-4 0  9990", "line2": "2 46984  66.0404 132.5143 0007765 269.4807  90.5318 12.80930827238282"}}, "geometry": {"type": "Point", "coordinates": [167.13518612267075, 52.74992106470245]}}, {"type": "Feature", "properties": {"norad_id": 48079, "name": "GAOFEN-12 02", "group": "resource", "lat": -10.897985552852456, "lon": 174.03013115749607, "alt_km": 632.6974169979785, "timestamp": "2025-12-27T15:27:10.801138+00:00", "meta": {"OBJECT_NAME": "GAOFEN-12 02", "OBJECT_ID": "2021-026A", "EPOCH": "2025-12-27T06:29:04.812576", "MEAN_MOTION": 14.80692578, "ECCENTRICITY": 0.00035237, "INCLINATION": 97.9858, "RA_OF_ASC_NODE": 355.207, "ARG_OF_PERICENTER": 71.981, "MEAN_ANOMALY": 288.1786, "EPHEMERIS_TYPE": 0, "CLASSIFICATION_TYPE": "U", "NORAD_CAT_ID": 48079, "ELEMENT_SET_NO": 999, "REV_AT_EPOCH": 25632, "BSTAR": 8.8277386e-05, "MEAN_MOTION_DOT": 6.26e-06, "MEAN_MOTION_DDOT": 0}, "tle": {"line1": "1 48079U 21026A   25361.27019459  .00000626  00000+0  88277-4 0  9992", "line2": "2 48079  97.9858 355.2070 0003523  71.9810 288.1786 14.80692578256325"}}, "geometry": {"type": "Point", "coordinates": [174.03013115749607, -10.897985552852456]}}, {"type": "Feature", "properties": {"norad_id": 48268, "name": "PLEIADES NEO 3", "group": "resource", "lat": -48.76093879450235, "lon": 82.97770269389285, "alt_km": 631.621556766715, "timestamp": "2025-12-27T15:27:10.801148+00:00", "meta": {"OBJECT_NAME": "PLEIADES NEO 3", "OBJECT_ID": "2021-034A", "EPOCH": "2025-12-27T07:34:18.005952", "MEAN_MOTION": 14.81675248, "ECCENTRICITY": 0.00013761, "INCLINATION": 97.8941, "RA_OF_ASC_NODE": 73.5473, "ARG_OF_PERICENTER": 88.7959, "MEAN_ANOMALY": 271.3411, "EPHEMERIS_TYPE": 0, "CLASSIFICATION_TYPE": "U", "NORAD_CAT_ID": 48268, "ELEMENT_SET_NO": 999, "REV_AT_EPOCH": 25220, "BSTAR": 7.6728557e-05, "MEAN_MOTION_DOT": 5.52e-06, "MEAN_MOTION_DDOT": 0}, "tle": {"line1": "1 48268U 21034A   25361.31548618  .00000552  00000+0  76729-4 0  9997", "line2": "2 48268  97.8941  73.5473 0001376  88.7959 271.3411 14.81675248252206"}}, "geometry": {"type": "Point", "coordinates": [82.97770269389285, -48.76093879450235]}}, {"type": "Feature", "properties": {"norad_id": 49070, "name": "PLEIADES NEO 4", "group": "resource", "lat": 48.538741249491125, "lon": -97.09826493960385, "alt_km": 619.0317771522659, "timestamp": "2025-12-27T15:27:10.801158+00:00", "meta": {"OBJECT_NAME": "PLEIADES NEO 4", "OBJECT_ID": "2021-073E", "EPOCH": "2025-12-27T06:45:39.731040", "MEAN_MOTION": 14.81671464, "ECCENTRICITY": 0.00013094, "INCLINATION": 97.894, "RA_OF_ASC_NODE": 73.5097, "ARG_OF_PERICENTER": 89.4792, "MEAN_ANOMALY": 270.6571, "EPHEMERIS_TYPE": 0, "CLASSIFICATION_TYPE": "U", "NORAD_CAT_ID": 49070, "ELEMENT_SET_NO": 999, "REV_AT_EPOCH": 23591, "BSTAR": -4.7421692e-05, "MEAN_MOTION_DOT": -4.25e-06, "MEAN_MOTION_DDOT": 0}, "tle": {"line1": "1 49070U 21073E   25361.28170985 -.00000425  00000+0 -47422-4 0  9995", "line2": "2 49070  97.8940  73.5097 0001309  89.4792 270.6571 14.81671464235912"}}, "geometry": {"type": "Point", "coordinates": [-97.09826493960385, 48.538741249491125]}}, {"type": "Feature", "properties": {"norad_id": 49260, "name": "LANDSAT 9", "group": "resource", "lat": -81.64858178226373, "lon": 149.0122108197899, "alt_km": 710.6375966036348, "timestamp": "2025-12-27T15:27:10.801168+00:00", "meta": {"OBJECT_NAME": "LANDSAT 9", "OBJECT_ID": "2021-088A", "EPOCH": "2025-12-27T04:19:19.840800", "MEAN_MOTION": 14.57112985, "ECCENTRICITY": 0.00011037, "INCLINATION": 98.2075, "RA_OF_ASC_NODE": 69.0804, "ARG_OF_PERICENTER": 93.7467, "MEAN_ANOMALY": 266.3858, "EPHEMERIS_TYPE": 0, "CLASSIFICATION_TYPE": "U", "NORAD_CAT_ID": 49260, "ELEMENT_SET_NO": 999, "REV_AT_EPOCH": 22595, "BSTAR": 0.00012601018, "MEAN_MOTION_DOT": 5.23e-06, "MEAN_MOTION_DDOT": 0}, "tle": {"line1": "1 49260U 21088A   25361.18009075  .00000523  00000+0  12601-3 0  9999", "line2": "2 49260  98.2075  69.0804 0001103  93.7467 266.3858 14.57112985225956"}}, "geometry": {"type": "Point", "coordinates": [149.0122108197899, -81.64858178226373]}}, {"type": "Feature", "properties": {"norad_id": 51444, "name": "CSG-2", "group": "resource", "lat": -9.209392285832928, "lon": 1.455212929282878, "alt_km": 626.9207765488736, "timestamp": "2025-12-27T15:27:10.801178+00:00", "meta": {"OBJECT_NAME": "CSG-2", "OBJECT_ID": "2022-008A", "EPOCH": "2025-12-27T06:30:03.701952", "MEAN_MOTION": 14.82158751, "ECCENTRICITY": 0.00014683, "INCLINATION": 97.8808, "RA_OF_ASC_NODE": 182.3748, "ARG_OF_PERICENTER": 85.6001, "MEAN_ANOMALY": 274.538, "EPHEMERIS_TYPE": 0, "CLASSIFICATION_TYPE": "U", "NORAD_CAT_ID": 51444, "ELEMENT_SET_NO": 999, "REV_AT_EPOCH": 21112, "BSTAR": 9.7829098e-05, "MEAN_MOTION_DOT": 7.27e-06, "MEAN_MOTION_DDOT": 0}, "tle": {"line1": "1 51444U 22008A   25361.27087618  .00000727  00000+0  97829-4 0  9990", "line2": "2 51444  97.8808 182.3748 0001468  85.6001 274.5380 14.82158751211120"}}, "geometry": {"type": "Point", "coordinates": [1.455212929282878, -9.209392285832928]}}]}